[
    {
        "Altitude(m)": 607911.0172458176,
        "Argument of Periapsis(deg)": 0.0,
        "Eccentricity": 0.0,
        "Inclination(deg)": 60.0,
        "Latitude(deg)": -14.292990505990517,
        "Longitude(deg)": -26.55732552060914,
        "Mean Anomaly(deg)": -163.6364,
        "RAAN(deg)": 245.0,
        "Satellite Name": "Test1 1090",
        "Satellite Number": 1090,
        "Semi-Major Axis(m)": 6980739.136638005,
        "Time(s)": 0
    },
    {
        "Altitude(m)": 608060.2510202709,
        "Argument of Periapsis(deg)": 0.00010418945913296404,
        "Eccentricity": 0.0,
        "Inclination(deg)": 60.0,
        "Latitude(deg)": -14.82665136557442,
        "Longitude(deg)": -26.268714967753635,
        "Mean Anomaly(deg)": -163.01629385453816,
        "RAAN(deg)": 244.99957995086027,
        "Satellite Name": "Test1 1090",
        "Satellite Number": 1090,
        "Semi-Major Axis(m)": 6980739.136638005,
        "Time(s)": 10
    }
]